{"fetched_at": "2026-06-04T18:22:40.329413+00:00", "line1": "1 46810U 20076D   26154.62446986  .00004161  00000+0  27311-3 0  9995", "line2": "2 46810  34.9978 131.6964 0009424  46.3228 313.8262 15.07086378306532"}
{"fetched_at": "2026-06-22T01:52:45.764645+00:00", "line1": "1 46810U 20076D   26171.31764847  .00002890  00000+0  18974-3 0  9991", "line2": "2 46810  35.0002  29.2512 0010394 202.5453 157.4800 15.07200135309056"}
{"fetched_at": "2026-06-24T08:25:59.578297+00:00", "line1": "1 46810U 20076D   26173.76853054  .00002725  00000+0  17890-3 0  9994", "line2": "2 46810  35.0003  14.2089 0010695 223.0968 136.8905 15.07213572309420"}
{"fetched_at": "2026-06-24T08:26:28.748909+00:00", "line1": "1 46810U 20076D   26171.31764847  .00002890  00000+0  18974-3 0  9991", "line2": "2 46810  35.0002  29.2512 0010394 202.5453 157.4800 15.07200135309056"}
